{"type": "FeatureCollection", "features": [ {"type": "Feature", "properties": {"norad_id": 57401, "name": "TIANMU-1 09", "group": "weather", "lat": 40.00118428138009, "lon": -147.6326920552136, "alt_km": 475.1760265460898, "timestamp": "2025-12-02T19:35:50.205632+00:00", "meta": {"OBJECT_NAME": "TIANMU-1 09", "OBJECT_ID": "2023-101C", "EPOCH": "2025-12-02T11:07:47.474688", "MEAN_MOTION": 15.27841964, "ECCENTRICITY": 0.0006723, "INCLINATION": 97.2844, "RA_OF_ASC_NODE": 25.8606, "ARG_OF_PERICENTER": 111.886, "MEAN_ANOMALY": 248.3095, "EPHEMERIS_TYPE": 0, "CLASSIFICATION_TYPE": "U", "NORAD_CAT_ID": 57401, "ELEMENT_SET_NO": 999, "REV_AT_EPOCH": 13158, "BSTAR": 0.00034705, "MEAN_MOTION_DOT": 9.37e-05, "MEAN_MOTION_DDOT": 0}, "tle": {"line1": "1 57401U 23101C   25336.46374392  .00009370  00000+0  34705-3 0  9991", "line2": "2 57401  97.2844  25.8606 0006723 111.8860 248.3095 15.27841964131589"}}, "geometry": {"type": "Point", "coordinates": [-147.6326920552136, 40.00118428138009]}}, {"type": "Feature", "properties": {"norad_id": 57402, "name": "TIANMU-1 10", "group": "weather", "lat": -47.87260361014065, "lon": 35.18452427528964, "alt_km": 494.628558870123, "timestamp": "2025-12-02T19:35:50.205642+00:00", "meta": {"OBJECT_NAME": "TIANMU-1 10", "OBJECT_ID": "2023-101D", "EPOCH": "2025-12-02T11:56:58.776864", "MEAN_MOTION": 15.27833026, "ECCENTRICITY": 0.0008461, "INCLINATION": 97.2925, "RA_OF_ASC_NODE": 26.7329, "ARG_OF_PERICENTER": 113.0705, "MEAN_ANOMALY": 247.1428, "EPHEMERIS_TYPE": 0, "CLASSIFICATION_TYPE": "U", "NORAD_CAT_ID": 57402, "ELEMENT_SET_NO": 999, "REV_AT_EPOCH": 13158, "BSTAR": 0.00036555, "MEAN_MOTION_DOT": 9.875e-05, "MEAN_MOTION_DDOT": 0}, "tle": {"line1": "1 57402U 23101D   25336.49790251  .00009875  00000+0  36555-3 0  9996", "line2": "2 57402  97.2925  26.7329 0008461 113.0705 247.1428 15.27833026131582"}}, "geometry": {"type": "Point", "coordinates": [35.18452427528964, -47.87260361014065]}}, {"type": "Feature", "properties": {"norad_id": 57490, "name": "FENGYUN 3F", "group": "weather", "lat": 72.33796673613602, "lon": -105.9520646906618, "alt_km": 818.2674505917839, "timestamp": "2025-12-02T19:35:50.205656+00:00", "meta": {"OBJECT_NAME": "FENGYUN 3F", "OBJECT_ID": "2023-111A", "EPOCH": "2025-12-02T12:20:16.284768", "MEAN_MOTION": 14.19889149, "ECCENTRICITY": 7.07e-05, "INCLINATION": 98.7096, "RA_OF_ASC_NODE": 44.9719, "ARG_OF_PERICENTER": 84.9132, "MEAN_ANOMALY": 275.2125, "EPHEMERIS_TYPE": 0, "CLASSIFICATION_TYPE": "U", "NORAD_CAT_ID": 57490, "ELEMENT_SET_NO": 999, "REV_AT_EPOCH": 12095, "BSTAR": 8.5039e-05, "MEAN_MOTION_DOT": 1.37e-06, "MEAN_MOTION_DDOT": 0}, "tle": {"line1": "1 57490U 23111A   25336.51407737  .00000137  00000+0  85039-4 0  9995", "line2": "2 57490  98.7096  44.9719 0000707  84.9132 275.2125 14.19889149120956"}}, "geometry": {"type": "Point", "coordinates": [-105.9520646906618, 72.33796673613602]}}, {"type": "Feature", "properties": {"norad_id": 58584, "name": "ARKTIKA-M 2", "group": "weather", "lat": -17.001591126813697, "lon": 4.854445625043855, "alt_km": 4906.768585350547, "timestamp": "2025-12-02T19:35:50.205668+00:00", "meta": {"OBJECT_NAME": "ARKTIKA-M 2", "OBJECT_ID": "2023-198A", "EPOCH": "2025-12-01T08:43:04.634112", "MEAN_MOTION": 2.00605427, "ECCENTRICITY": 0.68640288, "INCLINATION": 63.2218, "RA_OF_ASC_NODE": 176.1298, "ARG_OF_PERICENTER": 268.1507, "MEAN_ANOMALY": 18.8441, "EPHEMERIS_TYPE": 0, "CLASSIFICATION_TYPE": "U", "NORAD_CAT_ID": 58584, "ELEMENT_SET_NO": 999, "REV_AT_EPOCH": 1435, "BSTAR": 0, "MEAN_MOTION_DOT": 2.37e-06, "MEAN_MOTION_DDOT": 0}, "tle": {"line1": "1 58584U 23198A   25335.36324808  .00000237  00000+0  00000+0 0  9995", "line2": "2 58584  63.2218 176.1298 6864028 268.1507  18.8441  2.00605427 14356"}}, "geometry": {"type": "Point", "coordinates": [4.854445625043855, -17.001591126813697]}}, {"type": "Feature", "properties": {"norad_id": 58645, "name": "TIANMU-1 11", "group": "weather", "lat": -72.407932572179, "lon": 152.5519421464044, "alt_km": 500.4515679414917, "timestamp": "2025-12-02T19:35:50.205680+00:00", "meta": {"OBJECT_NAME": "TIANMU-1 11", "OBJECT_ID": "2023-205A", "EPOCH": "2025-12-02T12:11:03.941664", "MEAN_MOTION": 15.24401264, "ECCENTRICITY": 0.0008943, "INCLINATION": 97.3616, "RA_OF_ASC_NODE": 356.3126, "ARG_OF_PERICENTER": 350.2821, "MEAN_ANOMALY": 9.8243, "EPHEMERIS_TYPE": 0, "CLASSIFICATION_TYPE": "U", "NORAD_CAT_ID": 58645, "ELEMENT_SET_NO": 999, "REV_AT_EPOCH": 10753, "BSTAR": 0.00029902, "MEAN_MOTION_DOT": 7.267e-05, "MEAN_MOTION_DDOT": 0}, "tle": {"line1": "1 58645U 23205A   25336.50768451  .00007267  00000+0  29902-3 0  9991", "line2": "2 58645  97.3616 356.3126 0008943 350.2821   9.8243 15.24401264107534"}}, "geometry": {"type": "Point", "coordinates": [152.5519421464044, -72.407932572179]}}, {"type": "Feature", "properties": {"norad_id": 58646, "name": "TIANMU-1 12", "group": "weather", "lat": 68.76275124266076, "lon": -164.1475518229651, "alt_km": 489.4268730387075, "timestamp": "2025-12-02T19:35:50.205694+00:00", "meta": {"OBJECT_NAME": "TIANMU-1 12", "OBJECT_ID": "2023-205B", "EPOCH": "2025-12-02T12:48:53.470944", "MEAN_MOTION": 15.24314598, "ECCENTRICITY": 0.0006722, "INCLINATION": 97.3603, "RA_OF_ASC_NODE": 356.1471, "ARG_OF_PERICENTER": 336.1556, "MEAN_ANOMALY": 23.9369, "EPHEMERIS_TYPE": 0, "CLASSIFICATION_TYPE": "U", "NORAD_CAT_ID": 58646, "ELEMENT_SET_NO": 999, "REV_AT_EPOCH": 10752, "BSTAR": 0.0003516, "MEAN_MOTION_DOT": 8.533e-05, "MEAN_MOTION_DDOT": 0}, "tle": {"line1": "1 58646U 23205B   25336.53395221  .00008533  00000+0  35160-3 0  9996", "line2": "2 58646  97.3603 356.1471 0006722 336.1556  23.9369 15.24314598107521"}}, "geometry": {"type": "Point", "coordinates": [-164.1475518229651, 68.76275124266076]}}, {"type": "Feature", "properties": {"norad_id": 58647, "name": "TIANMU-1 13", "group": "weather", "lat": -73.37509223446129, "lon": 22.284961524724753, "alt_km": 496.19264375756575, "timestamp": "2025-12-02T19:35:50.205705+00:00", "meta": {"OBJECT_NAME": "TIANMU-1 13", "OBJECT_ID": "2023-205C", "EPOCH": "2025-12-02T13:37:25.779936", "MEAN_MOTION": 15.24321239, "ECCENTRICITY": 0.0006455, "INCLINATION": 97.3631, "RA_OF_ASC_NODE": 356.377, "ARG_OF_PERICENTER": 312.9275, "MEAN_ANOMALY": 47.142, "EPHEMERIS_TYPE": 0, "CLASSIFICATION_TYPE": "U", "NORAD_CAT_ID": 58647, "ELEMENT_SET_NO": 999, "REV_AT_EPOCH": 10752, "BSTAR": 0.00032514, "MEAN_MOTION_DOT": 7.886e-05, "MEAN_MOTION_DDOT": 0}, "tle": {"line1": "1 58647U 23205C   25336.56765949  .00007886  00000+0  32514-3 0  9998", "line2": "2 58647  97.3631 356.3770 0006455 312.9275  47.1420 15.24321239107526"}}, "geometry": {"type": "Point", "coordinates": [22.284961524724753, -73.37509223446129]}}, {"type": "Feature", "properties": {"norad_id": 58648, "name": "TIANMU-1 14", "group": "weather", "lat": 16.44740303161732, "lon": -6.2062697900494985, "alt_km": 491.0953512677761, "timestamp": "2025-12-02T19:35:50.205715+00:00", "meta": {"OBJECT_NAME": "TIANMU-1 14", "OBJECT_ID": "2023-205D", "EPOCH": "2025-12-02T13:13:22.099872", "MEAN_MOTION": 15.243058, "ECCENTRICITY": 0.0007372, "INCLINATION": 97.3563, "RA_OF_ASC_NODE": 355.7188, "ARG_OF_PERICENTER": 316.977, "MEAN_ANOMALY": 43.089, "EPHEMERIS_TYPE": 0, "CLASSIFICATION_TYPE": "U", "NORAD_CAT_ID": 58648, "ELEMENT_SET_NO": 999, "REV_AT_EPOCH": 10752, "BSTAR": 0.00034343, "MEAN_MOTION_DOT": 8.332e-05, "MEAN_MOTION_DDOT": 0}, "tle": {"line1": "1 58648U 23205D   25336.55095023  .00008332  00000+0  34343-3 0  9996", "line2": "2 58648  97.3563 355.7188 0007372 316.9770  43.0890 15.24305800107522"}}, "geometry": {"type": "Point", "coordinates": [-6.2062697900494985, 16.44740303161732]}}, {"type": "Feature", "properties": {"norad_id": 58660, "name": "TIANMU-1 19", "group": "weather", "lat": 25.81023836560445, "lon": -88.501454193597, "alt_km": 484.64232313276534, "timestamp": "2025-12-02T19:35:50.205725+00:00", "meta": {"OBJECT_NAME": "TIANMU-1 19", "OBJECT_ID": "2023-208A", "EPOCH": "2025-12-02T11:03:53.660736", "MEAN_MOTION": 15.2755059, "ECCENTRICITY": 0.0004153, "INCLINATION": 97.4389, "RA_OF_ASC_NODE": 87.5209, "ARG_OF_PERICENTER": 298.7656, "MEAN_ANOMALY": 61.3165, "EPHEMERIS_TYPE": 0, "CLASSIFICATION_TYPE": "U", "NORAD_CAT_ID": 58660, "ELEMENT_SET_NO": 999, "REV_AT_EPOCH": 10725, "BSTAR": 0.00045586, "MEAN_MOTION_DOT": 0.00012219, "MEAN_MOTION_DDOT": 0}, "tle": {"line1": "1 58660U 23208A   25336.46103774  .00012219  00000+0  45586-3 0  9996", "line2": "2 58660  97.4389  87.5209 0004153 298.7656  61.3165 15.27550590107250"}}, "geometry": {"type": "Point", "coordinates": [-88.501454193597, 25.81023836560445]}}, {"type": "Feature", "properties": {"norad_id": 58661, "name": "TIANMU-1 20", "group": "weather", "lat": -5.632302643385631, "lon": -92.42435717228867, "alt_km": 485.68977876164536, "timestamp": "2025-12-02T19:35:50.205736+00:00", "meta": {"OBJECT_NAME": "TIANMU-1 20", "OBJECT_ID": "2023-208B", "EPOCH": "2025-12-02T10:55:58.695744", "MEAN_MOTION": 15.28743774, "ECCENTRICITY": 0.0006506, "INCLINATION": 97.4327, "RA_OF_ASC_NODE": 87.9529, "ARG_OF_PERICENTER": 308.5594, "MEAN_ANOMALY": 51.5062, "EPHEMERIS_TYPE": 0, "CLASSIFICATION_TYPE": "U", "NORAD_CAT_ID": 58661, "ELEMENT_SET_NO": 999, "REV_AT_EPOCH": 10732, "BSTAR": 0.00043268, "MEAN_MOTION_DOT": 0.00012028, "MEAN_MOTION_DDOT": 0}, "tle": {"line1": "1 58661U 23208B   25336.45554046  .00012028  00000+0  43268-3 0  9991", "line2": "2 58661  97.4327  87.9529 0006506 308.5594  51.5062 15.28743774107321"}}, "geometry": {"type": "Point", "coordinates": [-92.42435717228867, -5.632302643385631]}}]}